TRANSPORTER-16 OBJECT CQ
1 68502U 26067CQ  26103.92481518  .00001537  00000+0  15914-3 0  9990
2 68502  97.7575  63.1921 0001241 169.7010 190.4235 14.91483961  2144
